COSMOS 2477 (745)       
1 37868U 11064B   17345.86796365  .00000102  00000-0  00000+0 0  9996
2 37868  64.4916 178.2571 0013650 240.0803 101.8280  2.13101860 47505
